{
"type": "FeatureCollection",
"name": "sources",
"crs": { "type": "name", "properties": { "name": "urn:ogc:def:crs:EPSG::32632" } },
"features": [
{ "type": "Feature", "properties": { "id": 0, "substation": 0 }, "geometry": { "type": "Point", "coordinates": [ 494805.853680428233929, 5605117.334673495031893 ] } },
{ "type": "Feature", "properties": { "id": 1, "substation": 0 }, "geometry": { "type": "Point", "coordinates": [ 496317.508739001234062, 5604913.350435212254524 ] } },
{ "type": "Feature", "properties": { "id": 2, "substation": 0 }, "geometry": { "type": "Point", "coordinates": [ 498239.459090536867734, 5604644.990943027660251 ] } },
{ "type": "Feature", "properties": { "id": 3, "substation": 0 }, "geometry": { "type": "Point", "coordinates": [ 499165.91982294578338, 5606496.55509829800576 ] } },
{ "type": "Feature", "properties": { "id": 4, "substation": 0 }, "geometry": { "type": "Point", "coordinates": [ 497664.929339568130672, 5607095.128618805669248 ] } },
{ "type": "Feature", "properties": { "id": 5, "substation": 0 }, "geometry": { "type": "Point", "coordinates": [ 495364.095716553158127, 5607343.322368807159364 ] } },
{ "type": "Feature", "properties": { "id": 6, "substation": 0 }, "geometry": { "type": "Point", "coordinates": [ 493399.487064236658625, 5605838.453858068212867 ] } },
{ "type": "Feature", "properties": { "id": 7, "substation": 0 }, "geometry": { "type": "Point", "coordinates": [ 492637.357740516483318, 5605454.335249667055905 ] } },
{ "type": "Feature", "properties": { "id": 8, "substation": 0 }, "geometry": { "type": "Point", "coordinates": [ 494619.805318614002317, 5606808.251546051353216 ] } },
{ "type": "Feature", "properties": { "id": 9, "substation": 0 }, "geometry": { "type": "Point", "coordinates": [ 493389.355717801314313, 5607413.660089753568172 ] } },
{ "type": "Feature", "properties": { "id": 10, "substation": 0 }, "geometry": { "type": "Point", "coordinates": [ 492653.790881390625145, 5607845.429959133267403 ] } },
{ "type": "Feature", "properties": { "id": 11, "substation": 0 }, "geometry": { "type": "Point", "coordinates": [ 492507.201447799860034, 5607894.293103665113449 ] } },
{ "type": "Feature", "properties": { "id": 12, "substation": 0 }, "geometry": { "type": "Point", "coordinates": [ 496217.891911591228563, 5609331.393086566589773 ] } },
{ "type": "Feature", "properties": { "id": 13, "substation": 0 }, "geometry": { "type": "Point", "coordinates": [ 497420.855993598001078, 5605552.934094893746078 ] } },
{ "type": "Feature", "properties": { "id": 14, "substation": 0 }, "geometry": { "type": "Point", "coordinates": [ 499154.915920319908764, 5605416.524483078159392 ] } },
{ "type": "Feature", "properties": { "id": 15, "substation": 0 }, "geometry": { "type": "Point", "coordinates": [ 498838.468889076553751, 5609106.855303368531168 ] } },
{ "type": "Feature", "properties": { "id": 16, "substation": 0 }, "geometry": { "type": "Point", "coordinates": [ 497524.981027775385883, 5609749.056631490588188 ] } },
{ "type": "Feature", "properties": { "id": 17, "substation": 0 }, "geometry": { "type": "Point", "coordinates": [ 498096.214455498149619, 5609514.048174462281168 ] } },
{ "type": "Feature", "properties": { "id": 18, "substation": 0 }, "geometry": { "type": "Point", "coordinates": [ 498163.110427176521625, 5610224.890586564317346 ] } },
{ "type": "Feature", "properties": { "id": 19, "substation": 0 }, "geometry": { "type": "Point", "coordinates": [ 499437.042409572110046, 5610315.636426409706473 ] } },
{ "type": "Feature", "properties": { "id": 20, "substation": 0 }, "geometry": { "type": "Point", "coordinates": [ 499087.438244540244341, 5610865.346802381798625 ] } },
{ "type": "Feature", "properties": { "id": 21, "substation": 0 }, "geometry": { "type": "Point", "coordinates": [ 492889.381042518885806, 5609370.367261376231909 ] } },
{ "type": "Feature", "properties": { "id": 22, "substation": 0 }, "geometry": { "type": "Point", "coordinates": [ 492814.777491495071445, 5610002.243341694585979 ] } },
{ "type": "Feature", "properties": { "id": 23, "substation": 0 }, "geometry": { "type": "Point", "coordinates": [ 492604.927736860641744, 5610378.31504334975034 ] } },
{ "type": "Feature", "properties": { "id": 24, "substation": 0 }, "geometry": { "type": "Point", "coordinates": [ 501979.671037449792493, 5606216.222196700982749 ] } },
{ "type": "Feature", "properties": { "id": 25, "substation": 0 }, "geometry": { "type": "Point", "coordinates": [ 501754.551550149626564, 5607032.934755288995802 ] } },
{ "type": "Feature", "properties": { "id": 26, "substation": 0 }, "geometry": { "type": "Point", "coordinates": [ 502045.98530502646463, 5607921.196918366476893 ] } },
{ "type": "Feature", "properties": { "id": 27, "substation": 0 }, "geometry": { "type": "Point", "coordinates": [ 501886.307529151032213, 5609169.824772365391254 ] } },
{ "type": "Feature", "properties": { "id": 28, "substation": 0 }, "geometry": { "type": "Point", "coordinates": [ 502205.226802826160565, 5610440.70280824508518 ] } },
{ "type": "Feature", "properties": { "id": 29, "substation": 0 }, "geometry": { "type": "Point", "coordinates": [ 502862.261585527739953, 5610397.947556779719889 ] } },
{ "type": "Feature", "properties": { "id": 30, "substation": 0 }, "geometry": { "type": "Point", "coordinates": [ 500899.446520870551467, 5610510.507300429977477 ] } },
{ "type": "Feature", "properties": { "id": 31, "substation": 0 }, "geometry": { "type": "Point", "coordinates": [ 491750.695263734145556, 5604936.618599296547472 ] } },
{ "type": "Feature", "properties": { "id": 32, "substation": 0 }, "geometry": { "type": "Point", "coordinates": [ 491650.787584292993415, 5604520.845592706464231 ] } },
{ "type": "Feature", "properties": { "id": 33, "substation": 0 }, "geometry": { "type": "Point", "coordinates": [ 495623.972023908980191, 5602668.845159372314811 ] } },
{ "type": "Feature", "properties": { "id": 34, "substation": 0 }, "geometry": { "type": "Point", "coordinates": [ 497206.78888422815362, 5603948.012478701770306 ] } },
{ "type": "Feature", "properties": { "id": 35, "substation": 0 }, "geometry": { "type": "Point", "coordinates": [ 496897.904006304801442, 5603431.459236516617239 ] } },
{ "type": "Feature", "properties": { "id": 36, "substation": 0 }, "geometry": { "type": "Point", "coordinates": [ 495224.341306144022383, 5609409.341436182148755 ] } }
]
}
