{
"type": "FeatureCollection",
"name": "substation_buffer",
"crs": { "type": "name", "properties": { "name": "urn:ogc:def:crs:EPSG::32232" } },
"features": [
{ "type": "Feature", "properties": { "id": 0 }, "geometry": { "type": "MultiPolygon", "coordinates": [ [ [ [ 500094.66541860770667, 5606915.188023176044226 ], [ 500093.185099704889581, 5606820.955745941959321 ], [ 500088.74560389254475, 5606726.816464588046074 ], [ 500081.351312416954897, 5606632.863083220086992 ], [ 500071.009522551146802, 5606539.188322483561933 ], [ 500057.730440393148456, 5606445.884628055617213 ], [ 500041.52717079379363, 5606353.044079419225454 ], [ 500022.415704423969146, 5606260.758298986591399 ], [ 500000.414901993586682, 5606169.118361681699753 ], [ 499975.546475638519041, 5606078.214705058373511 ], [ 499947.834967493196018, 5605988.137040051631629 ], [ 499917.30772547039669, 5605898.974262440577149 ], [ 499883.99487627245253, 5605810.814365122467279 ], [ 499847.929295659647323, 5605723.744351271539927 ], [ 499809.146576005790848, 5605637.850148480385542 ], [ 499767.684991172805894, 5605553.216523957438767 ], [ 499723.585458739311434, 5605469.927000870928168 ], [ 499676.891499619523529, 5605388.063775924965739 ], [ 499627.64919511374319, 5605307.707638239488006 ], [ 499575.9071414314094, 5605228.937889619730413 ], [ 499521.71640173252672, 5605151.832266299054027 ], [ 499465.130455734790303, 5605076.466862217523158 ], [ 499406.205146935069934, 5605002.916053930297494 ], [ 499344.998627499095164, 5604931.252427205443382 ], [ 499281.571300871961284, 5604861.546705390326679 ], [ 499215.985762167372741, 5604793.867679616436362 ], [ 499148.306736393773463, 5604728.28214091155678 ], [ 499078.601014578656759, 5604664.854814284481108 ], [ 499006.937387853802647, 5604603.648294848389924 ], [ 498933.386579566635191, 5604544.7229860490188 ], [ 498858.021175485104322, 5604488.137040051631629 ], [ 498780.91555216407869, 5604433.946300351992249 ], [ 498702.145803544670343, 5604382.204246670007706 ], [ 498621.789665858843364, 5604332.961942164227366 ], [ 498539.926440912880935, 5604286.267983044497669 ], [ 498456.636917826370336, 5604242.168450610712171 ], [ 498372.003293302899692, 5604200.706865778192878 ], [ 498286.109090512036346, 5604161.92414612416178 ], [ 498199.039076661749277, 5604125.858565511181951 ], [ 498110.8791793435812, 5604092.545716313645244 ], [ 498021.71640173252672, 5604062.018474290147424 ], [ 497931.638736725377385, 5604034.306966145522892 ], [ 497840.735080102283973, 5604009.438539789989591 ], [ 497749.09514279733412, 5603987.437737359665334 ], [ 497656.809362364874687, 5603968.326270990073681 ], [ 497563.96881372842472, 5603952.123001391068101 ], [ 497470.665119300596416, 5603938.843919232487679 ], [ 497376.99035856325645, 5603928.502129366621375 ], [ 497283.036977195646614, 5603921.107837891206145 ], [ 497188.897695842082612, 5603916.668342079035938 ], [ 497094.66541860770667, 5603915.188023176044226 ], [ 497000.433141373330727, 5603916.668342079035938 ], [ 496906.293860019766726, 5603921.107837891206145 ], [ 496812.340478652156889, 5603928.502129366621375 ], [ 496718.665717914816923, 5603938.843919232487679 ], [ 496625.362023486988619, 5603952.123001391068101 ], [ 496532.521474850538652, 5603968.326270990073681 ], [ 496440.23569441807922, 5603987.437737359665334 ], [ 496348.595757113129366, 5604009.438539789989591 ], [ 496257.692100490035955, 5604034.306966145522892 ], [ 496167.61443548288662, 5604062.018474290147424 ], [ 496078.45165787183214, 5604092.545716313645244 ], [ 495990.291760553664062, 5604125.858565511181951 ], [ 495903.221746703376994, 5604161.92414612416178 ], [ 495817.327543912513647, 5604200.706865778192878 ], [ 495732.693919389043003, 5604242.168450610712171 ], [ 495649.404396302532405, 5604286.267983044497669 ], [ 495567.541171356569976, 5604332.961942164227366 ], [ 495487.185033670742996, 5604382.204246670007706 ], [ 495408.415285051334649, 5604433.946300351992249 ], [ 495331.309661730309017, 5604488.137040051631629 ], [ 495255.944257648778148, 5604544.7229860490188 ], [ 495182.393449361610692, 5604603.648294848389924 ], [ 495110.72982263675658, 5604664.854814284481108 ], [ 495041.024100821639877, 5604728.28214091155678 ], [ 494973.345075048040599, 5604793.867679616436362 ], [ 494907.759536343452055, 5604861.546705390326679 ], [ 494844.332209716318175, 5604931.252427205443382 ], [ 494783.125690280343406, 5605002.916053930297494 ], [ 494724.200381480623037, 5605076.466862217523158 ], [ 494667.61443548288662, 5605151.832266299054027 ], [ 494613.423695784003939, 5605228.937889619730413 ], [ 494561.68164210167015, 5605307.707638239488006 ], [ 494512.43933759588981, 5605388.063775924965739 ], [ 494465.745378476101905, 5605469.927000870928168 ], [ 494421.645846042607445, 5605553.216523957438767 ], [ 494380.184261209622491, 5605637.850148480385542 ], [ 494341.401541555766016, 5605723.744351271539927 ], [ 494305.33596094296081, 5605810.814365122467279 ], [ 494272.023111745016649, 5605898.974262440577149 ], [ 494241.495869722217321, 5605988.137040051631629 ], [ 494213.784361576894298, 5606078.214705058373511 ], [ 494188.915935221826658, 5606169.118361681699753 ], [ 494166.915132791444194, 5606260.758298986591399 ], [ 494147.80366642161971, 5606353.044079419225454 ], [ 494131.600396822264884, 5606445.884628055617213 ], [ 494118.321314664266538, 5606539.188322483561933 ], [ 494107.979524798458442, 5606632.863083220086992 ], [ 494100.585233322868589, 5606726.816464588046074 ], [ 494096.145737510523759, 5606820.955745941959321 ], [ 494094.66541860770667, 5606915.188023176044226 ], [ 494096.145737510523759, 5607009.42030041012913 ], [ 494100.585233322868589, 5607103.559581764042377 ], [ 494107.979524798458442, 5607197.51296313200146 ], [ 494118.321314664266538, 5607291.187723868526518 ], [ 494131.600396822264884, 5607384.491418296471238 ], [ 494147.80366642161971, 5607477.331966932862997 ], [ 494166.915132791444194, 5607569.617747365497053 ], [ 494188.915935221826658, 5607661.257684670388699 ], [ 494213.784361576894298, 5607752.161341293714941 ], [ 494241.495869722217321, 5607842.239006300456822 ], [ 494272.023111745016649, 5607931.401783911511302 ], [ 494305.33596094296081, 5608019.561681229621172 ], [ 494341.401541555766016, 5608106.631695080548525 ], [ 494380.184261209622491, 5608192.525897871702909 ], [ 494421.645846042607445, 5608277.159522394649684 ], [ 494465.745378476101905, 5608360.449045481160283 ], [ 494512.43933759588981, 5608442.312270427122712 ], [ 494561.68164210167015, 5608522.668408112600446 ], [ 494613.423695784003939, 5608601.438156732358038 ], [ 494667.61443548288662, 5608678.543780053034425 ], [ 494724.200381480623037, 5608753.909184134565294 ], [ 494783.125690280343406, 5608827.459992421790957 ], [ 494844.332209716318175, 5608899.123619146645069 ], [ 494907.759536343452055, 5608968.829340961761773 ], [ 494973.345075048040599, 5609036.508366735652089 ], [ 495041.024100821639877, 5609102.093905440531671 ], [ 495110.72982263675658, 5609165.521232067607343 ], [ 495182.393449361610692, 5609226.727751503698528 ], [ 495255.944257648778148, 5609285.653060303069651 ], [ 495331.309661730309017, 5609342.239006300456822 ], [ 495408.415285051334649, 5609396.429746 ], [ 495487.185033670742996, 5609448.171799682080746 ], [ 495567.541171356569976, 5609497.414104187861085 ], [ 495649.404396302532405, 5609544.108063307590783 ], [ 495732.693919389043003, 5609588.207595741376281 ], [ 495817.327543912513647, 5609629.669180573895574 ], [ 495903.221746703376994, 5609668.451900227926672 ], [ 495990.291760553664062, 5609704.517480840906501 ], [ 496078.45165787183214, 5609737.830330038443208 ], [ 496167.61443548288662, 5609768.357572061941028 ], [ 496257.692100490035955, 5609796.069080206565559 ], [ 496348.595757113129366, 5609820.937506562098861 ], [ 496440.23569441807922, 5609842.938308992423117 ], [ 496532.521474850538652, 5609862.049775362014771 ], [ 496625.362023486988619, 5609878.25304496102035 ], [ 496718.665717914816923, 5609891.532127119600773 ], [ 496812.340478652156889, 5609901.873916985467076 ], [ 496906.293860019766726, 5609909.268208460882306 ], [ 497000.433141373330727, 5609913.707704273052514 ], [ 497094.66541860770667, 5609915.188023176044226 ], [ 497188.897695842082612, 5609913.707704273052514 ], [ 497283.036977195646614, 5609909.268208460882306 ], [ 497376.99035856325645, 5609901.873916985467076 ], [ 497470.665119300596416, 5609891.532127119600773 ], [ 497563.96881372842472, 5609878.25304496102035 ], [ 497656.809362364874687, 5609862.049775362014771 ], [ 497749.09514279733412, 5609842.938308992423117 ], [ 497840.735080102283973, 5609820.937506562098861 ], [ 497931.638736725377385, 5609796.069080206565559 ], [ 498021.71640173252672, 5609768.357572061941028 ], [ 498110.8791793435812, 5609737.830330038443208 ], [ 498199.039076661749277, 5609704.517480840906501 ], [ 498286.109090512036346, 5609668.451900227926672 ], [ 498372.003293302899692, 5609629.669180573895574 ], [ 498456.636917826370336, 5609588.207595741376281 ], [ 498539.926440912880935, 5609544.108063307590783 ], [ 498621.789665858843364, 5609497.414104187861085 ], [ 498702.145803544670343, 5609448.171799682080746 ], [ 498780.91555216407869, 5609396.429746 ], [ 498858.021175485104322, 5609342.239006300456822 ], [ 498933.386579566635191, 5609285.653060303069651 ], [ 499006.937387853802647, 5609226.727751503698528 ], [ 499078.601014578656759, 5609165.521232067607343 ], [ 499148.306736393773463, 5609102.093905440531671 ], [ 499215.985762167372741, 5609036.508366735652089 ], [ 499281.571300871961284, 5608968.829340961761773 ], [ 499344.998627499095164, 5608899.123619146645069 ], [ 499406.205146935069934, 5608827.459992421790957 ], [ 499465.130455734790303, 5608753.909184134565294 ], [ 499521.71640173252672, 5608678.543780053034425 ], [ 499575.9071414314094, 5608601.438156732358038 ], [ 499627.64919511374319, 5608522.668408112600446 ], [ 499676.891499619523529, 5608442.312270427122712 ], [ 499723.585458739311434, 5608360.449045481160283 ], [ 499767.684991172805894, 5608277.159522394649684 ], [ 499809.146576005790848, 5608192.525897871702909 ], [ 499847.929295659647323, 5608106.631695080548525 ], [ 499883.99487627245253, 5608019.561681229621172 ], [ 499917.30772547039669, 5607931.401783911511302 ], [ 499947.834967493196018, 5607842.239006300456822 ], [ 499975.546475638519041, 5607752.161341293714941 ], [ 500000.414901993586682, 5607661.257684670388699 ], [ 500022.415704423969146, 5607569.617747365497053 ], [ 500041.52717079379363, 5607477.331966932862997 ], [ 500057.730440393148456, 5607384.491418296471238 ], [ 500071.009522551146802, 5607291.187723868526518 ], [ 500081.351312416954897, 5607197.51296313200146 ], [ 500088.74560389254475, 5607103.559581764042377 ], [ 500093.185099704889581, 5607009.42030041012913 ], [ 500094.66541860770667, 5606915.188023176044226 ] ] ] ] } }
]
}
